[{"OBJECT_NAME":"SMDC ONE 2.4","OBJECT_ID":"2013-072H","EPOCH":"2026-03-09T13:26:07.283328","MEAN_MOTION":15.15767863,"ECCENTRICITY":0.0137633,"INCLINATION":120.4883,"RA_OF_ASC_NODE":328.0945,"ARG_OF_PERICENTER":267.6479,"MEAN_ANOMALY":90.8828,"EPHEMERIS_TYPE":0,"CLASSIFICATION_TYPE":"U","NORAD_CAT_ID":39469,"ELEMENT_SET_NO":999,"REV_AT_EPOCH":10271,"BSTAR":0.00065974,"MEAN_MOTION_DOT":0.00015821,"MEAN_MOTION_DDOT":0},{"OBJECT_NAME":"STARLINK-32516","OBJECT_ID":"2024-225P","EPOCH":"2026-03-09T16:45:08.871840","MEAN_MOTION":14.98339257,"ECCENTRICITY":0.00034447,"INCLINATION":70.0022,"RA_OF_ASC_NODE":164.5399,"ARG_OF_PERICENTER":273.3746,"MEAN_ANOMALY":86.7019,"EPHEMERIS_TYPE":0,"CLASSIFICATION_TYPE":"U","NORAD_CAT_ID":62176,"ELEMENT_SET_NO":999,"REV_AT_EPOCH":6987,"BSTAR":0.00054834516,"MEAN_MOTION_DOT":6.458e-5,"MEAN_MOTION_DDOT":0}]
